[{"OBJECT_NAME":"IRIDIUM 111","OBJECT_ID":"2017-003K","EPOCH":"2026-03-09T16:49:02.226144","MEAN_MOTION":14.34218028,"ECCENTRICITY":0.00021015,"INCLINATION":86.3976,"RA_OF_ASC_NODE":129.9805,"ARG_OF_PERICENTER":94.2487,"MEAN_ANOMALY":265.8949,"EPHEMERIS_TYPE":0,"CLASSIFICATION_TYPE":"U","NORAD_CAT_ID":41926,"ELEMENT_SET_NO":999,"REV_AT_EPOCH":47899,"BSTAR":1.777394e-5,"MEAN_MOTION_DOT":7.0e-7,"MEAN_MOTION_DDOT":0},{"OBJECT_NAME":"CZ-6A DEB","OBJECT_ID":"2024-140VX","EPOCH":"2026-03-09T13:43:28.686720","MEAN_MOTION":14.49095121,"ECCENTRICITY":0.0084397,"INCLINATION":88.921,"RA_OF_ASC_NODE":277.5576,"ARG_OF_PERICENTER":250.8173,"MEAN_ANOMALY":108.3885,"EPHEMERIS_TYPE":0,"CLASSIFICATION_TYPE":"U","NORAD_CAT_ID":61358,"ELEMENT_SET_NO":999,"REV_AT_EPOCH":7990,"BSTAR":0.00029019,"MEAN_MOTION_DOT":1.169e-5,"MEAN_MOTION_DDOT":0}]
